[
    {
        "Altitude(m)": 607886.7011417788,
        "Argument of Periapsis(deg)": 0.0,
        "Eccentricity": 0.0,
        "Inclination(deg)": 60.0,
        "Latitude(deg)": 40.99846990975325,
        "Longitude(deg)": -170.0269627617388,
        "Mean Anomaly(deg)": 49.09089999999999,
        "RAAN(deg)": 260.0,
        "Satellite Name": "Test1 1147",
        "Satellite Number": 1147,
        "Semi-Major Axis(m)": 6980739.136638005,
        "Time(s)": 0
    },
    {
        "Altitude(m)": 607987.6149866359,
        "Argument of Periapsis(deg)": 0.00010418945913296404,
        "Eccentricity": 0.0,
        "Inclination(deg)": 60.0,
        "Latitude(deg)": 41.46355939419556,
        "Longitude(deg)": -169.5227337370373,
        "Mean Anomaly(deg)": 49.711006145461795,
        "RAAN(deg)": 259.99957995086027,
        "Satellite Name": "Test1 1147",
        "Satellite Number": 1147,
        "Semi-Major Axis(m)": 6980739.136638005,
        "Time(s)": 10
    }
]